[
  {
    "COMMENT": "GENERATED VIA SPACETRACK.ORG API",
    "ORIGINATOR": "18 SPCS",
    "NORAD_CAT_ID": "39086",
    "OBJECT_NAME": "SARAL",
    "OBJECT_TYPE": "PAYLOAD",
    "CLASSIFICATION_TYPE": "U",
    "INTLDES": "13009A",
    "EPOCH": "2023-06-02 18:39:54",
    "EPOCH_MICROSECONDS": "766944",
    "MEAN_MOTION": "14.32216746",
    "ECCENTRICITY": "0.0001685",
    "INCLINATION": "98.5481",
    "RA_OF_ASC_NODE": "339.2776",
    "ARG_OF_PERICENTER": "4.0101",
    "MEAN_ANOMALY": "356.1096",
    "EPHEMERIS_TYPE": "0",
    "ELEMENT_SET_NO": "999",
    "REV_AT_EPOCH": "53662",
    "BSTAR": "-0.00029312",
    "MEAN_MOTION_DOT": "-0.00000833",
    "MEAN_MOTION_DDOT": "0",
    "FILE": "3923371",
    "TLE_LINE0": "0 SARAL",
    "TLE_LINE1": "1 39086U 13009A   23153.77771721 -.00000833  00000-0 -29312-3 0  9998",
    "TLE_LINE2": "2 39086  98.5481 339.2776 0001685   4.0101 356.1096 14.32216746536624",
    "OBJECT_ID": "2013-009A",
    "OBJECT_NUMBER": "39086",
    "SEMIMAJOR_AXIS": "7162.468",
    "PERIOD": "100.543",
    "APOGEE": "785.540",
    "PERIGEE": "783.126",
    "DECAYED": "0"
  },
  {
    "COMMENT": "GENERATED VIA SPACETRACK.ORG API",
    "ORIGINATOR": "18 SPCS",
    "NORAD_CAT_ID": "39086",
    "OBJECT_NAME": "SARAL",
    "OBJECT_TYPE": "PAYLOAD",
    "CLASSIFICATION_TYPE": "U",
    "INTLDES": "13009A",
    "EPOCH": "2023-06-02 18:39:54",
    "EPOCH_MICROSECONDS": "766944",
    "MEAN_MOTION": "14.32216746",
    "ECCENTRICITY": "0.0001685",
    "INCLINATION": "98.5481",
    "RA_OF_ASC_NODE": "339.2776",
    "ARG_OF_PERICENTER": "4.0101",
    "MEAN_ANOMALY": "356.1096",
    "EPHEMERIS_TYPE": "0",
    "ELEMENT_SET_NO": "999",
    "REV_AT_EPOCH": "53662",
    "BSTAR": "-0.00029312",
    "MEAN_MOTION_DOT": "-0.00000833",
    "MEAN_MOTION_DDOT": "0",
    "FILE": "3923570",
    "TLE_LINE0": "0 SARAL",
    "TLE_LINE1": "1 39086U 13009A   23153.77771721 -.00000833  00000-0 -29312-3 0  9998",
    "TLE_LINE2": "2 39086  98.5481 339.2776 0001685   4.0101 356.1096 14.32216746536624",
    "OBJECT_ID": "2013-009A",
    "OBJECT_NUMBER": "39086",
    "SEMIMAJOR_AXIS": "7162.468",
    "PERIOD": "100.543",
    "APOGEE": "785.540",
    "PERIGEE": "783.126",
    "DECAYED": "0"
  },
  {
    "COMMENT": "GENERATED VIA SPACETRACK.ORG API",
    "ORIGINATOR": "18 SPCS",
    "NORAD_CAT_ID": "39086",
    "OBJECT_NAME": "SARAL",
    "OBJECT_TYPE": "PAYLOAD",
    "CLASSIFICATION_TYPE": "U",
    "INTLDES": "13009A",
    "EPOCH": "2023-06-03 13:06:31",
    "EPOCH_MICROSECONDS": "300704",
    "MEAN_MOTION": "14.32218021",
    "ECCENTRICITY": "0.0001622",
    "INCLINATION": "98.548",
    "RA_OF_ASC_NODE": "340.0348",
    "ARG_OF_PERICENTER": "2.5955",
    "MEAN_ANOMALY": "357.5237",
    "EPHEMERIS_TYPE": "0",
    "ELEMENT_SET_NO": "999",
    "REV_AT_EPOCH": "53673",
    "BSTAR": "-0.0002853",
    "MEAN_MOTION_DOT": "-0.00000812",
    "MEAN_MOTION_DDOT": "0",
    "FILE": "3924076",
    "TLE_LINE0": "0 SARAL",
    "TLE_LINE1": "1 39086U 13009A   23154.54619561 -.00000812  00000-0 -28530-3 0  9995",
    "TLE_LINE2": "2 39086  98.5480 340.0348 0001622   2.5955 357.5237 14.32218021536731",
    "OBJECT_ID": "2013-009A",
    "OBJECT_NUMBER": "39086",
    "SEMIMAJOR_AXIS": "7162.463",
    "PERIOD": "100.543",
    "APOGEE": "785.490",
    "PERIGEE": "783.167",
    "DECAYED": "0"
  },
  {
    "COMMENT": "GENERATED VIA SPACETRACK.ORG API",
    "ORIGINATOR": "18 SPCS",
    "NORAD_CAT_ID": "39086",
    "OBJECT_NAME": "SARAL",
    "OBJECT_TYPE": "PAYLOAD",
    "CLASSIFICATION_TYPE": "U",
    "INTLDES": "13009A",
    "EPOCH": "2023-06-03 21:29:31",
    "EPOCH_MICROSECONDS": "579296",
    "MEAN_MOTION": "14.32217765",
    "ECCENTRICITY": "0.0001594",
    "INCLINATION": "98.5481",
    "RA_OF_ASC_NODE": "340.3791",
    "ARG_OF_PERICENTER": "1.1402",
    "MEAN_ANOMALY": "358.9785",
    "EPHEMERIS_TYPE": "0",
    "ELEMENT_SET_NO": "999",
    "REV_AT_EPOCH": "53678",
    "BSTAR": "-0.00028699",
    "MEAN_MOTION_DOT": "-0.00000817",
    "MEAN_MOTION_DDOT": "0",
    "FILE": "3924324",
    "TLE_LINE0": "0 SARAL",
    "TLE_LINE1": "1 39086U 13009A   23154.89550439 -.00000817  00000-0 -28699-3 0  9992",
    "TLE_LINE2": "2 39086  98.5481 340.3791 0001594   1.1402 358.9785 14.32217765536789",
    "OBJECT_ID": "2013-009A",
    "OBJECT_NUMBER": "39086",
    "SEMIMAJOR_AXIS": "7162.464",
    "PERIOD": "100.543",
    "APOGEE": "785.471",
    "PERIGEE": "783.188",
    "DECAYED": "0"
  },
  {
    "COMMENT": "GENERATED VIA SPACETRACK.ORG API",
    "ORIGINATOR": "18 SPCS",
    "NORAD_CAT_ID": "39086",
    "OBJECT_NAME": "SARAL",
    "OBJECT_TYPE": "PAYLOAD",
    "CLASSIFICATION_TYPE": "U",
    "INTLDES": "13009A",
    "EPOCH": "2023-06-04 02:31:19",
    "EPOCH_MICROSECONDS": "747488",
    "MEAN_MOTION": "14.32217742",
    "ECCENTRICITY": "0.0001565",
    "INCLINATION": "98.548",
    "RA_OF_ASC_NODE": "340.5856",
    "ARG_OF_PERICENTER": "2.0264",
    "MEAN_ANOMALY": "358.0926",
    "EPHEMERIS_TYPE": "0",
    "ELEMENT_SET_NO": "999",
    "REV_AT_EPOCH": "53681",
    "BSTAR": "-0.0002862",
    "MEAN_MOTION_DOT": "-0.00000815",
    "MEAN_MOTION_DDOT": "0",
    "FILE": "3924380",
    "TLE_LINE0": "0 SARAL",
    "TLE_LINE1": "1 39086U 13009A   23155.10508967 -.00000815  00000-0 -28620-3 0  9998",
    "TLE_LINE2": "2 39086  98.5480 340.5856 0001565   2.0264 358.0926 14.32217742536813",
    "OBJECT_ID": "2013-009A",
    "OBJECT_NUMBER": "39086",
    "SEMIMAJOR_AXIS": "7162.464",
    "PERIOD": "100.543",
    "APOGEE": "785.450",
    "PERIGEE": "783.208",
    "DECAYED": "0"
  },
  {
    "COMMENT": "GENERATED VIA SPACETRACK.ORG API",
    "ORIGINATOR": "18 SPCS",
    "NORAD_CAT_ID": "39086",
    "OBJECT_NAME": "SARAL",
    "OBJECT_TYPE": "PAYLOAD",
    "CLASSIFICATION_TYPE": "U",
    "INTLDES": "13009A",
    "EPOCH": "2023-06-04 14:15:32",
    "EPOCH_MICROSECONDS": "110560",
    "MEAN_MOTION": "14.32217771",
    "ECCENTRICITY": "0.0001539",
    "INCLINATION": "98.5481",
    "RA_OF_ASC_NODE": "341.0674",
    "ARG_OF_PERICENTER": "359.1076",
    "MEAN_ANOMALY": "1.0105",
    "EPHEMERIS_TYPE": "0",
    "ELEMENT_SET_NO": "999",
    "REV_AT_EPOCH": "53688",
    "BSTAR": "-0.0002726",
    "MEAN_MOTION_DOT": "-0.00000778",
    "MEAN_MOTION_DDOT": "0",
    "FILE": "3924842",
    "TLE_LINE0": "0 SARAL",
    "TLE_LINE1": "1 39086U 13009A   23155.59412165 -.00000778  00000-0 -27260-3 0  9992",
    "TLE_LINE2": "2 39086  98.5481 341.0674 0001539 359.1076   1.0105 14.32217771536889",
    "OBJECT_ID": "2013-009A",
    "OBJECT_NUMBER": "39086",
    "SEMIMAJOR_AXIS": "7162.464",
    "PERIOD": "100.543",
    "APOGEE": "785.432",
    "PERIGEE": "783.227",
    "DECAYED": "0"
  },
  {
    "COMMENT": "GENERATED VIA SPACETRACK.ORG API",
    "ORIGINATOR": "18 SPCS",
    "NORAD_CAT_ID": "39086",
    "OBJECT_NAME": "SARAL",
    "OBJECT_TYPE": "PAYLOAD",
    "CLASSIFICATION_TYPE": "U",
    "INTLDES": "13009A",
    "EPOCH": "2023-06-04 20:57:56",
    "EPOCH_MICROSECONDS": "350368",
    "MEAN_MOTION": "14.32217583",
    "ECCENTRICITY": "0.0001535",
    "INCLINATION": "98.5481",
    "RA_OF_ASC_NODE": "341.3428",
    "ARG_OF_PERICENTER": "358.5034",
    "MEAN_ANOMALY": "1.6144",
    "EPHEMERIS_TYPE": "0",
    "ELEMENT_SET_NO": "999",
    "REV_AT_EPOCH": "53692",
    "BSTAR": "-0.0002711",
    "MEAN_MOTION_DOT": "-0.00000774",
    "MEAN_MOTION_DDOT": "0",
    "FILE": "3925173",
    "TLE_LINE0": "0 SARAL",
    "TLE_LINE1": "1 39086U 13009A   23155.87356887 -.00000774  00000-0 -27110-3 0  9991",
    "TLE_LINE2": "2 39086  98.5481 341.3428 0001535 358.5034   1.6144 14.32217583536927",
    "OBJECT_ID": "2013-009A",
    "OBJECT_NUMBER": "39086",
    "SEMIMAJOR_AXIS": "7162.465",
    "PERIOD": "100.543",
    "APOGEE": "785.429",
    "PERIGEE": "783.230",
    "DECAYED": "0"
  },
  {
    "COMMENT": "GENERATED VIA SPACETRACK.ORG API",
    "ORIGINATOR": "18 SPCS",
    "NORAD_CAT_ID": "39086",
    "OBJECT_NAME": "SARAL",
    "OBJECT_TYPE": "PAYLOAD",
    "CLASSIFICATION_TYPE": "U",
    "INTLDES": "13009A",
    "EPOCH": "2023-06-05 03:40:20",
    "EPOCH_MICROSECONDS": "503776",
    "MEAN_MOTION": "14.32219687",
    "ECCENTRICITY": "0.0001513",
    "INCLINATION": "98.5478",
    "RA_OF_ASC_NODE": "341.6184",
    "ARG_OF_PERICENTER": "358.109",
    "MEAN_ANOMALY": "2.0088",
    "EPHEMERIS_TYPE": "0",
    "ELEMENT_SET_NO": "999",
    "REV_AT_EPOCH": "53696",
    "BSTAR": "-0.00027002",
    "MEAN_MOTION_DOT": "-0.00000771",
    "MEAN_MOTION_DDOT": "0",
    "FILE": "3925209",
    "TLE_LINE0": "0 SARAL",
    "TLE_LINE1": "1 39086U 13009A   23156.15301509 -.00000771  00000-0 -27002-3 0  9991",
    "TLE_LINE2": "2 39086  98.5478 341.6184 0001513 358.1090   2.0088 14.32219687536962",
    "OBJECT_ID": "2013-009A",
    "OBJECT_NUMBER": "39086",
    "SEMIMAJOR_AXIS": "7162.458",
    "PERIOD": "100.543",
    "APOGEE": "785.407",
    "PERIGEE": "783.239",
    "DECAYED": "0"
  },
  {
    "COMMENT": "GENERATED VIA SPACETRACK.ORG API",
    "ORIGINATOR": "18 SPCS",
    "NORAD_CAT_ID": "39086",
    "OBJECT_NAME": "SARAL",
    "OBJECT_TYPE": "PAYLOAD",
    "CLASSIFICATION_TYPE": "U",
    "INTLDES": "13009A",
    "EPOCH": "2023-06-05 13:43:56",
    "EPOCH_MICROSECONDS": "807328",
    "MEAN_MOTION": "14.32219273",
    "ECCENTRICITY": "0.0001491",
    "INCLINATION": "98.5478",
    "RA_OF_ASC_NODE": "342.0314",
    "ARG_OF_PERICENTER": "356.9104",
    "MEAN_ANOMALY": "3.207",
    "EPHEMERIS_TYPE": "0",
    "ELEMENT_SET_NO": "999",
    "REV_AT_EPOCH": "53702",
    "BSTAR": "-0.00027782",
    "MEAN_MOTION_DOT": "-0.00000792",
    "MEAN_MOTION_DDOT": "0",
    "FILE": "3925691",
    "TLE_LINE0": "0 SARAL",
    "TLE_LINE1": "1 39086U 13009A   23156.57218527 -.00000792  00000-0 -27782-3 0  9992",
    "TLE_LINE2": "2 39086  98.5478 342.0314 0001491 356.9104   3.2070 14.32219273537022",
    "OBJECT_ID": "2013-009A",
    "OBJECT_NUMBER": "39086",
    "SEMIMAJOR_AXIS": "7162.459",
    "PERIOD": "100.543",
    "APOGEE": "785.392",
    "PERIGEE": "783.256",
    "DECAYED": "0"
  }
]